IRIDIUM 112             
1 41925U 17003J   23329.93308343  .00000879  00000+0  30674-3 0  9990
2 41925  86.3945 118.7810 0001888  89.0561 271.0851 14.34223701359365
IRIDIUM 111             
1 41926U 17003K   23329.92038620  .00000880  00000+0  30694-3 0  9992
2 41926  86.3948 118.8364 0002064  99.0332 261.1097 14.34225386359349
IRIDIUM 113             
1 42803U 17039A   23329.62128323  .00000614  00000+0  21226-3 0  9999
2 42803  86.3979 352.7137 0001969  96.1389 264.0031 14.34220264337232
IRIDIUM 123             
1 42804U 17039B   23329.87206987  .00000745  00000+0  25881-3 0  9996
2 42804  86.3997  24.0973 0002007  96.7452 263.3972 14.34221896336036
IRIDIUM 120             
1 42805U 17039C   23329.61493763  .00000623  00000+0  21539-3 0  9990
2 42805  86.3969 352.6203 0002171  94.8471 265.2973 14.34221396337223
IRIDIUM 115             
1 42806U 17039D   23329.60817609  .00000812  00000+0  23544-3 0  9997
2 42806  86.4507 352.6175 0002045 103.4959 256.6470 14.43291136339462
IRIDIUM 118             
1 42807U 17039E   23329.62470227  .00000637  00000+0  22046-3 0  9992
2 42807  86.3996  24.2025 0002098  92.6875 267.4561 14.34216698335999
IRIDIUM 117             
1 42808U 17039F   23329.64373740  .00000676  00000+0  23433-3 0  9991
2 42808  86.3997  24.1610 0002142  95.6179 264.5261 14.34220781336028
