<?xml version="1.0" encoding="UTF-8"?>
<ndm xmlns:xsi="http://www.w3.org/2001/XMLSchema-instance" xsi:noNamespaceSchemaLocation="https://sanaregistry.org/r/ndmxml_unqualified/ndmxml-2.0.0-master-2.0.xsd">
<omm id="CCSDS_OMM_VERS" version="2.0">
<header><CREATION_DATE/><ORIGINATOR/></header><body><segment><metadata><OBJECT_NAME>IRIDIUM 112</OBJECT_NAME><OBJECT_ID>2017-003J</OBJECT_ID><CENTER_NAME>EARTH</CENTER_NAME><REF_FRAME>TEME</REF_FRAME><TIME_SYSTEM>UTC</TIME_SYSTEM><MEAN_ELEMENT_THEORY>SGP4</MEAN_ELEMENT_THEORY></metadata><data><meanElements><EPOCH>2023-11-25T22:23:38.408352</EPOCH><MEAN_MOTION>14.34223701</MEAN_MOTION><ECCENTRICITY>.0001888</ECCENTRICITY><INCLINATION>86.3945</INCLINATION><RA_OF_ASC_NODE>118.7810</RA_OF_ASC_NODE><ARG_OF_PERICENTER>89.0561</ARG_OF_PERICENTER><MEAN_ANOMALY>271.0851</MEAN_ANOMALY></meanElements><tleParameters><EPHEMERIS_TYPE>0</EPHEMERIS_TYPE><CLASSIFICATION_TYPE>U</CLASSIFICATION_TYPE><NORAD_CAT_ID>41925</NORAD_CAT_ID><ELEMENT_SET_NO>999</ELEMENT_SET_NO><REV_AT_EPOCH>35936</REV_AT_EPOCH><BSTAR>.30674E-3</BSTAR><MEAN_MOTION_DOT>.879E-5</MEAN_MOTION_DOT><MEAN_MOTION_DDOT>0</MEAN_MOTION_DDOT></tleParameters></data></segment></body></omm>
<omm id="CCSDS_OMM_VERS" version="2.0">
<header><CREATION_DATE/><ORIGINATOR/></header><body><segment><metadata><OBJECT_NAME>IRIDIUM 111</OBJECT_NAME><OBJECT_ID>2017-003K</OBJECT_ID><CENTER_NAME>EARTH</CENTER_NAME><REF_FRAME>TEME</REF_FRAME><TIME_SYSTEM>UTC</TIME_SYSTEM><MEAN_ELEMENT_THEORY>SGP4</MEAN_ELEMENT_THEORY></metadata><data><meanElements><EPOCH>2023-11-25T22:05:21.367680</EPOCH><MEAN_MOTION>14.34225386</MEAN_MOTION><ECCENTRICITY>.0002064</ECCENTRICITY><INCLINATION>86.3948</INCLINATION><RA_OF_ASC_NODE>118.8364</RA_OF_ASC_NODE><ARG_OF_PERICENTER>99.0332</ARG_OF_PERICENTER><MEAN_ANOMALY>261.1097</MEAN_ANOMALY></meanElements><tleParameters><EPHEMERIS_TYPE>0</EPHEMERIS_TYPE><CLASSIFICATION_TYPE>U</CLASSIFICATION_TYPE><NORAD_CAT_ID>41926</NORAD_CAT_ID><ELEMENT_SET_NO>999</ELEMENT_SET_NO><REV_AT_EPOCH>35934</REV_AT_EPOCH><BSTAR>.30694E-3</BSTAR><MEAN_MOTION_DOT>.88E-5</MEAN_MOTION_DOT><MEAN_MOTION_DDOT>0</MEAN_MOTION_DDOT></tleParameters></data></segment></body></omm>
<omm id="CCSDS_OMM_VERS" version="2.0">
<header><CREATION_DATE/><ORIGINATOR/></header><body><segment><metadata><OBJECT_NAME>IRIDIUM 113</OBJECT_NAME><OBJECT_ID>2017-039A</OBJECT_ID><CENTER_NAME>EARTH</CENTER_NAME><REF_FRAME>TEME</REF_FRAME><TIME_SYSTEM>UTC</TIME_SYSTEM><MEAN_ELEMENT_THEORY>SGP4</MEAN_ELEMENT_THEORY></metadata><data><meanElements><EPOCH>2023-11-25T14:54:38.871072</EPOCH><MEAN_MOTION>14.34220264</MEAN_MOTION><ECCENTRICITY>.0001969</ECCENTRICITY><INCLINATION>86.3979</INCLINATION><RA_OF_ASC_NODE>352.7137</RA_OF_ASC_NODE><ARG_OF_PERICENTER>96.1389</ARG_OF_PERICENTER><MEAN_ANOMALY>264.0031</MEAN_ANOMALY></meanElements><tleParameters><EPHEMERIS_TYPE>0</EPHEMERIS_TYPE><CLASSIFICATION_TYPE>U</CLASSIFICATION_TYPE><NORAD_CAT_ID>42803</NORAD_CAT_ID><ELEMENT_SET_NO>999</ELEMENT_SET_NO><REV_AT_EPOCH>33723</REV_AT_EPOCH><BSTAR>.21226E-3</BSTAR><MEAN_MOTION_DOT>.614E-5</MEAN_MOTION_DOT><MEAN_MOTION_DDOT>0</MEAN_MOTION_DDOT></tleParameters></data></segment></body></omm>
<omm id="CCSDS_OMM_VERS" version="2.0">
<header><CREATION_DATE/><ORIGINATOR/></header><body><segment><metadata><OBJECT_NAME>IRIDIUM 123</OBJECT_NAME><OBJECT_ID>2017-039B</OBJECT_ID><CENTER_NAME>EARTH</CENTER_NAME><REF_FRAME>TEME</REF_FRAME><TIME_SYSTEM>UTC</TIME_SYSTEM><MEAN_ELEMENT_THEORY>SGP4</MEAN_ELEMENT_THEORY></metadata><data><meanElements><EPOCH>2023-11-25T20:55:46.836768</EPOCH><MEAN_MOTION>14.34221896</MEAN_MOTION><ECCENTRICITY>.0002007</ECCENTRICITY><INCLINATION>86.3997</INCLINATION><RA_OF_ASC_NODE>24.0973</RA_OF_ASC_NODE><ARG_OF_PERICENTER>96.7452</ARG_OF_PERICENTER><MEAN_ANOMALY>263.3972</MEAN_ANOMALY></meanElements><tleParameters><EPHEMERIS_TYPE>0</EPHEMERIS_TYPE><CLASSIFICATION_TYPE>U</CLASSIFICATION_TYPE><NORAD_CAT_ID>42804</NORAD_CAT_ID><ELEMENT_SET_NO>999</ELEMENT_SET_NO><REV_AT_EPOCH>33603</REV_AT_EPOCH><BSTAR>.25881E-3</BSTAR><MEAN_MOTION_DOT>.745E-5</MEAN_MOTION_DOT><MEAN_MOTION_DDOT>0</MEAN_MOTION_DDOT></tleParameters></data></segment></body></omm>
<omm id="CCSDS_OMM_VERS" version="2.0">
<header><CREATION_DATE/><ORIGINATOR/></header><body><segment><metadata><OBJECT_NAME>IRIDIUM 120</OBJECT_NAME><OBJECT_ID>2017-039C</OBJECT_ID><CENTER_NAME>EARTH</CENTER_NAME><REF_FRAME>TEME</REF_FRAME><TIME_SYSTEM>UTC</TIME_SYSTEM><MEAN_ELEMENT_THEORY>SGP4</MEAN_ELEMENT_THEORY></metadata><data><meanElements><EPOCH>2023-11-25T14:45:30.611232</EPOCH><MEAN_MOTION>14.34221396</MEAN_MOTION><ECCENTRICITY>.0002171</ECCENTRICITY><INCLINATION>86.3969</INCLINATION><RA_OF_ASC_NODE>352.6203</RA_OF_ASC_NODE><ARG_OF_PERICENTER>94.8471</ARG_OF_PERICENTER><MEAN_ANOMALY>265.2973</MEAN_ANOMALY></meanElements><tleParameters><EPHEMERIS_TYPE>0</EPHEMERIS_TYPE><CLASSIFICATION_TYPE>U</CLASSIFICATION_TYPE><NORAD_CAT_ID>42805</NORAD_CAT_ID><ELEMENT_SET_NO>999</ELEMENT_SET_NO><REV_AT_EPOCH>33722</REV_AT_EPOCH><BSTAR>.21539E-3</BSTAR><MEAN_MOTION_DOT>.623E-5</MEAN_MOTION_DOT><MEAN_MOTION_DDOT>0</MEAN_MOTION_DDOT></tleParameters></data></segment></body></omm>
<omm id="CCSDS_OMM_VERS" version="2.0">
<header><CREATION_DATE/><ORIGINATOR/></header><body><segment><metadata><OBJECT_NAME>IRIDIUM 115</OBJECT_NAME><OBJECT_ID>2017-039D</OBJECT_ID><CENTER_NAME>EARTH</CENTER_NAME><REF_FRAME>TEME</REF_FRAME><TIME_SYSTEM>UTC</TIME_SYSTEM><MEAN_ELEMENT_THEORY>SGP4</MEAN_ELEMENT_THEORY></metadata><data><meanElements><EPOCH>2023-11-25T14:35:46.414176</EPOCH><MEAN_MOTION>14.43291136</MEAN_MOTION><ECCENTRICITY>.0002045</ECCENTRICITY><INCLINATION>86.4507</INCLINATION><RA_OF_ASC_NODE>352.6175</RA_OF_ASC_NODE><ARG_OF_PERICENTER>103.4959</ARG_OF_PERICENTER><MEAN_ANOMALY>256.6470</MEAN_ANOMALY></meanElements><tleParameters><EPHEMERIS_TYPE>0</EPHEMERIS_TYPE><CLASSIFICATION_TYPE>U</CLASSIFICATION_TYPE><NORAD_CAT_ID>42806</NORAD_CAT_ID><ELEMENT_SET_NO>999</ELEMENT_SET_NO><REV_AT_EPOCH>33946</REV_AT_EPOCH><BSTAR>.23544E-3</BSTAR><MEAN_MOTION_DOT>.812E-5</MEAN_MOTION_DOT><MEAN_MOTION_DDOT>0</MEAN_MOTION_DDOT></tleParameters></data></segment></body></omm>
<omm id="CCSDS_OMM_VERS" version="2.0">
<header><CREATION_DATE/><ORIGINATOR/></header><body><segment><metadata><OBJECT_NAME>IRIDIUM 118</OBJECT_NAME><OBJECT_ID>2017-039E</OBJECT_ID><CENTER_NAME>EARTH</CENTER_NAME><REF_FRAME>TEME</REF_FRAME><TIME_SYSTEM>UTC</TIME_SYSTEM><MEAN_ELEMENT_THEORY>SGP4</MEAN_ELEMENT_THEORY></metadata><data><meanElements><EPOCH>2023-11-25T14:59:34.276128</EPOCH><MEAN_MOTION>14.34216698</MEAN_MOTION><ECCENTRICITY>.0002098</ECCENTRICITY><INCLINATION>86.3996</INCLINATION><RA_OF_ASC_NODE>24.2025</RA_OF_ASC_NODE><ARG_OF_PERICENTER>92.6875</ARG_OF_PERICENTER><MEAN_ANOMALY>267.4561</MEAN_ANOMALY></meanElements><tleParameters><EPHEMERIS_TYPE>0</EPHEMERIS_TYPE><CLASSIFICATION_TYPE>U</CLASSIFICATION_TYPE><NORAD_CAT_ID>42807</NORAD_CAT_ID><ELEMENT_SET_NO>999</ELEMENT_SET_NO><REV_AT_EPOCH>33599</REV_AT_EPOCH><BSTAR>.22046E-3</BSTAR><MEAN_MOTION_DOT>.637E-5</MEAN_MOTION_DOT><MEAN_MOTION_DDOT>0</MEAN_MOTION_DDOT></tleParameters></data></segment></body></omm>
<omm id="CCSDS_OMM_VERS" version="2.0">
<header><CREATION_DATE/><ORIGINATOR/></header><body><segment><metadata><OBJECT_NAME>IRIDIUM 117</OBJECT_NAME><OBJECT_ID>2017-039F</OBJECT_ID><CENTER_NAME>EARTH</CENTER_NAME><REF_FRAME>TEME</REF_FRAME><TIME_SYSTEM>UTC</TIME_SYSTEM><MEAN_ELEMENT_THEORY>SGP4</MEAN_ELEMENT_THEORY></metadata><data><meanElements><EPOCH>2023-11-25T15:26:58.911360</EPOCH><MEAN_MOTION>14.34220781</MEAN_MOTION><ECCENTRICITY>.0002142</ECCENTRICITY><INCLINATION>86.3997</INCLINATION><RA_OF_ASC_NODE>24.1610</RA_OF_ASC_NODE><ARG_OF_PERICENTER>95.6179</ARG_OF_PERICENTER><MEAN_ANOMALY>264.5261</MEAN_ANOMALY></meanElements><tleParameters><EPHEMERIS_TYPE>0</EPHEMERIS_TYPE><CLASSIFICATION_TYPE>U</CLASSIFICATION_TYPE><NORAD_CAT_ID>42808</NORAD_CAT_ID><ELEMENT_SET_NO>999</ELEMENT_SET_NO><REV_AT_EPOCH>33602</REV_AT_EPOCH><BSTAR>.23433E-3</BSTAR><MEAN_MOTION_DOT>.676E-5</MEAN_MOTION_DOT><MEAN_MOTION_DDOT>0</MEAN_MOTION_DDOT></tleParameters></data></segment></body></omm>

</ndm>
